[{"OBJECT_NAME":"FOREST-3","OBJECT_ID":"2025-009CB","EPOCH":"2026-03-09T16:52:36.334848","MEAN_MOTION":15.23505035,"ECCENTRICITY":0.00043691,"INCLINATION":97.3949,"RA_OF_ASC_NODE":149.5432,"ARG_OF_PERICENTER":350.1299,"MEAN_ANOMALY":9.9851,"EPHEMERIS_TYPE":0,"CLASSIFICATION_TYPE":"U","NORAD_CAT_ID":62682,"ELEMENT_SET_NO":999,"REV_AT_EPOCH":12128,"BSTAR":0.000357114,"MEAN_MOTION_DOT":8.458e-5,"MEAN_MOTION_DDOT":0},{"OBJECT_NAME":"AEROCUBE 18A","OBJECT_ID":"2025-052L","EPOCH":"2026-03-09T22:34:41.135232","MEAN_MOTION":15.23215068,"ECCENTRICITY":0.00058387,"INCLINATION":97.4079,"RA_OF_ASC_NODE":323.7178,"ARG_OF_PERICENTER":105.4164,"MEAN_ANOMALY":254.7718,"EPHEMERIS_TYPE":0,"CLASSIFICATION_TYPE":"U","NORAD_CAT_ID":63220,"ELEMENT_SET_NO":999,"REV_AT_EPOCH":5478,"BSTAR":0.00035659101,"MEAN_MOTION_DOT":8.374e-5,"MEAN_MOTION_DDOT":0}]
